     2.01           GLONASS NAV DATA                        RINEX VERSION / TYPE
CCRINEXG V1.4 UX    CDDIS               02-APR- 9 16:53     PGM / RUN BY / DATE 
IGS BROADCAST EPHEMERIS FILE                                COMMENT             
CCRINEXG V1.4 UX    CDDIS               02-APR- 9 03:53     COMMENT             
  2009     4     1    0.158790498972E-06                    CORR TO SYSTEM TIME 
    15                                                      LEAP SECONDS        
                                                            END OF HEADER       
 3 09  4  1 16 15  0.0-0.344375148416E-04-0.272848410532E-11 0.576300000000E+05
   -0.219652080078E+05-0.115303325653E+01-0.279396772385E-08 0.000000000000E+00
   -0.905061914063E+04-0.560832977295E+00 0.000000000000E+00 0.500000000000E+01
   -0.929539355469E+04 0.327175045013E+01-0.186264514923E-08 0.000000000000E+00
 4 09  4  1 16 15  0.0 0.635776668787E-04-0.545696821064E-11 0.576600000000E+05
   -0.161517377930E+05-0.232162094116E+01-0.372529029846E-08 0.000000000000E+00
    0.141772119141E+04-0.134503173828E+01 0.000000000000E+00 0.600000000000E+01
   -0.197962119141E+05 0.181157016754E+01 0.000000000000E+00 0.000000000000E+00
 6 09  4  1 16 15  0.0-0.169364735484E-03 0.000000000000E+00 0.588000000000E+05
    0.168423598633E+05-0.112352466583E+01 0.000000000000E+00 0.000000000000E+00
    0.162119941406E+05-0.821910858154E+00 0.000000000000E+00 0.100000000000E+01
   -0.102989379883E+05-0.317808532715E+01 0.279396772385E-08 0.000000000000E+00
 7 09  4  1 16 15  0.0-0.892663374543E-04 0.181898940355E-11 0.576300000000E+05
    0.224976303711E+05 0.109451198578E+01 0.372529029846E-08 0.000000000000E+00
    0.816713525391E+04 0.513701438904E+00 0.000000000000E+00 0.500000000000E+01
    0.876995751953E+04-0.328011226654E+01 0.186264514923E-08 0.000000000000E+00
 8 09  4  1 16 15  0.0-0.102107413113E-03 0.000000000000E+00 0.576000000000E+05
    0.133558247070E+05 0.249923992157E+01 0.372529029846E-08 0.000000000000E+00
   -0.340607617188E+04 0.154920196533E+01 0.931322574616E-09 0.600000000000E+01
    0.214604272461E+05-0.130878734589E+01 0.000000000000E+00 0.000000000000E+00
 9 09  4  1 16 15  0.0-0.693500041962E-04-0.181898940355E-11 0.576000000000E+05
    0.782990869141E+04-0.279016399383E+01 0.372529029846E-08 0.000000000000E+00
    0.797517871094E+04 0.144504547119E+01 0.000000000000E+00-0.200000000000E+01
    0.229186196289E+05 0.451329231262E+00-0.931322574616E-09 0.000000000000E+00
10 09  4  1 16 15  0.0-0.140924938023E-03 0.909494701773E-12 0.576300000000E+05
    0.206787065430E+05-0.183439636230E+01 0.372529029846E-08 0.000000000000E+00
   -0.357160742188E+04 0.796969413757E+00 0.931322574616E-09-0.700000000000E+01
    0.145459160156E+05 0.279387283325E+01 0.931322574616E-09 0.000000000000E+00
11 09  4  1 16 15  0.0-0.927438959479E-04-0.909494701773E-12 0.578400000000E+05
    0.217375439453E+05 0.258351325989E+00 0.931322574616E-09 0.000000000000E+00
   -0.129469746094E+05-0.339018821716E+00 0.000000000000E+00 0.000000000000E+00
   -0.281421093750E+04 0.356247138977E+01 0.186264514923E-08 0.000000000000E+00
13 09  4  1 16 15  0.0-0.230764038861E-03-0.909494701773E-12 0.580800000000E+05
   -0.799120947266E+04 0.278502368927E+01-0.279396772385E-08 0.000000000000E+00
   -0.788876416016E+04-0.144040298462E+01 0.000000000000E+00-0.200000000000E+01
   -0.229161040039E+05-0.475797653198E+00 0.000000000000E+00 0.000000000000E+00
14 09  4  1 16 15  0.0-0.796718522906E-04 0.272848410532E-11 0.580500000000E+05
   -0.205530708008E+05 0.184600639343E+01-0.279396772385E-08 0.000000000000E+00
    0.344090332031E+04-0.814869880676E+00 0.000000000000E+00-0.700000000000E+01
   -0.146746430664E+05-0.278467369080E+01-0.931322574615E-09 0.000000000000E+00
15 09  4  1 16 15  0.0 0.920286402106E-04 0.181898940355E-11 0.576300000000E+05
   -0.217061708984E+05-0.239772796631E+00-0.186264514923E-08 0.000000000000E+00
    0.132149296875E+05 0.377526283264E+00 0.000000000000E+00 0.000000000000E+00
    0.286519189453E+04-0.355618476868E+01-0.186264514923E-08 0.000000000000E+00
17 09  4  1 16 15  0.0-0.261381268501E-03-0.909494701773E-12 0.576000000000E+05
   -0.106499687500E+05 0.103391647339E+00 0.931322574616E-09 0.000000000000E+00
   -0.308377197266E+04-0.314387702942E+01 0.000000000000E+00 0.400000000000E+01
    0.229732685547E+05-0.381984710693E+00-0.279396772385E-08 0.000000000000E+00
18 09  4  1 16 15  0.0-0.145286321640E-05 0.000000000000E+00 0.577200000000E+05
   -0.897687988281E+04 0.183454513550E+00 0.931322574616E-09 0.100000000000E+01
    0.156368730469E+05-0.246099090576E+01 0.000000000000E+00-0.300000000000E+01
    0.180131982422E+05 0.224270057678E+01-0.186264514923E-08 0.000000000000E+00
19 09  4  1 16 15  0.0-0.895531848073E-04-0.909494701773E-12 0.577800000000E+05
   -0.214896972656E+04 0.194517135620E+00 0.000000000000E+00 0.000000000000E+00
    0.252905156250E+05-0.340828895569E+00 0.000000000000E+00 0.300000000000E+01
    0.254381738281E+04 0.355774021149E+01 0.000000000000E+00 0.000000000000E+00
20 09  4  1 16 15  0.0-0.651236623526E-04 0.000000000000E+00 0.580800000000E+05
    0.606374218750E+04 0.616178512573E-01-0.931322574615E-09 0.000000000000E+00
    0.200008188477E+05 0.200369739532E+01-0.931322574615E-09 0.200000000000E+01
   -0.145648969727E+05 0.278107643127E+01 0.186264514923E-08 0.000000000000E+00
21 09  4  1 16 15  0.0-0.143480487168E-03-0.909494701773E-12 0.576300000000E+05
    0.106895615234E+05-0.776042938232E-01-0.931322574615E-09 0.000000000000E+00
    0.325705957031E+04 0.313930988312E+01 0.000000000000E+00 0.400000000000E+01
   -0.229374741211E+05 0.400438308716E+00 0.279396772385E-08 0.000000000000E+00
22 09  4  1 16 15  0.0-0.201709568501E-03-0.181898940355E-11 0.580500000000E+05
    0.893811181641E+04-0.197282791138E+00-0.931322574615E-09 0.000000000000E+00
   -0.158379062500E+05 0.245127582550E+01 0.000000000000E+00-0.300000000000E+01
   -0.179071782227E+05-0.224994945526E+01 0.186264514923E-08 0.000000000000E+00
23 09  4  1 16 15  0.0-0.200330279767E-03 0.545696821064E-11 0.576000000000E+05
    0.196399707031E+04-0.194745063782E+00 0.000000000000E+00 0.000000000000E+00
   -0.253813188477E+05 0.251927375793E+00 0.000000000000E+00 0.300000000000E+01
   -0.189397412109E+04-0.356438827515E+01 0.000000000000E+00 0.000000000000E+00
 2 09  4  1 16 45  0.0 0.204900279641E-04-0.272848410532E-11 0.594000000000E+05
   -0.154928979492E+05 0.166628742218E+01 0.000000000000E+00 0.000000000000E+00
   -0.146874233398E+05 0.946025848389E+00 0.000000000000E+00 0.100000000000E+01
    0.139469667969E+05 0.284768581390E+01-0.279396772385E-08 0.000000000000E+00
 3 09  4  1 16 45  0.0-0.344431027770E-04-0.272848410532E-11 0.594600000000E+05
   -0.234448486328E+05-0.459339141846E+00-0.186264514923E-08 0.000000000000E+00
   -0.955688623047E+04-0.292768478394E-01 0.000000000000E+00 0.500000000000E+01
   -0.312301660156E+04 0.354192352295E+01-0.186264514923E-08 0.000000000000E+00
 4 09  4  1 16 45  0.0 0.635664910078E-04-0.636646291241E-11 0.594600000000E+05
   -0.200795488281E+05-0.199582767487E+01-0.279396772385E-08 0.000000000000E+00
   -0.495753906250E+03-0.784715652466E+00 0.000000000000E+00 0.600000000000E+01
   -0.158184809570E+05 0.258001041412E+01-0.931322574615E-09 0.000000000000E+00
 6 09  4  1 16 45  0.0-0.169364735484E-03 0.000000000000E+00 0.596700000000E+05
    0.141286708984E+05-0.188133907318E+01 0.000000000000E+00 0.000000000000E+00
    0.145870161133E+05-0.940868377686E+00 0.000000000000E+00 0.100000000000E+01
   -0.155500961914E+05-0.261924457550E+01 0.279396772385E-08 0.000000000000E+00
 7 09  4  1 16 45  0.0-0.892626121640E-04 0.181898940355E-11 0.594300000000E+05
    0.238475869141E+05 0.376719474793E+00 0.279396772385E-08 0.000000000000E+00
    0.863132080078E+04 0.309772491455E-01 0.000000000000E+00 0.500000000000E+01
    0.260245361328E+04-0.352806186676E+01 0.279396772385E-08 0.000000000000E+00
 8 09  4  1 16 45  0.0-0.102106481790E-03 0.000000000000E+00 0.594000000000E+05
    0.177271000977E+05 0.230840110779E+01 0.372529029846E-08 0.000000000000E+00
   -0.112125195312E+04 0.985021591187E+00 0.000000000000E+00 0.600000000000E+01
    0.183053110352E+05-0.217412471771E+01 0.000000000000E+00 0.000000000000E+00
 9 09  4  1 16 45  0.0-0.693537294865E-04-0.181898940355E-11 0.594000000000E+05
    0.299540136719E+04-0.253725910187E+01 0.279396772385E-08 0.000000000000E+00
    0.109507377930E+05 0.183330345154E+01 0.000000000000E+00-0.200000000000E+01
    0.228337622070E+05-0.544965744019E+00-0.931322574616E-09 0.000000000000E+00
10 09  4  1 16 45  0.0-0.140924006700E-03 0.000000000000E+00 0.594300000000E+05
    0.170244990234E+05-0.217818832398E+01 0.372529029846E-08 0.000000000000E+00
   -0.158036865234E+04 0.141946983337E+01 0.000000000000E+00-0.700000000000E+01
    0.189491767578E+05 0.206680488586E+01 0.000000000000E+00 0.000000000000E+00
11 09  4  1 16 45  0.0-0.927466899157E-04-0.909494701773E-12 0.594000000000E+05
    0.214915058594E+05-0.509206771851E+00 0.279396772385E-08 0.000000000000E+00
   -0.131556254883E+05 0.142051696777E+00 0.000000000000E+00 0.000000000000E+00
    0.362434765625E+04 0.354473972321E+01 0.186264514923E-08 0.000000000000E+00
13 09  4  1 16 45  0.0-0.230765901506E-03-0.909494701773E-12 0.595500000000E+05
   -0.316072265625E+04 0.253789329529E+01-0.279396772385E-08 0.000000000000E+00
   -0.108587299805E+05-0.183205318451E+01 0.000000000000E+00-0.200000000000E+01
   -0.228769677734E+05 0.518994331360E+00 0.931322574615E-09 0.000000000000E+00
14 09  4  1 16 45  0.0-0.796671956778E-04 0.272848410532E-11 0.596700000000E+05
   -0.168825664063E+05 0.218425559998E+01-0.372529029846E-08 0.000000000000E+00
    0.141882666016E+04-0.143531227112E+01 0.000000000000E+00-0.700000000000E+01
   -0.190537094727E+05-0.204944610596E+01 0.000000000000E+00 0.000000000000E+00
